account_number,country,fullname,profileid,city,zip_code,dob
1234568,america,Gokul Govind,944773,New York,543436,07/20/1995
1234570,america,Aswin Srinivasan,944743,New York,543436,08/20/1995
1235965,india,Monica Lynch,988202,Denver,522867,02/22/1994
1238385,america,Alan Craig,987119,Milano,522709,07/20/1995
1235224,india,Henry Rixon,988025,Tokyo,521304,08/20/1995
1234742,america,Kurt Mills,984860,Fort Lauderdale,521630,02/22/1994
1235278,india,Chad Silva,985991,Santa Ana,522120,02/22/1994
1235873,america,Jayden Olson,988406,Saint Paul,522056,07/20/1995
1235433,india,Mandy Adams,987126,Norfolk,521461,08/20/1995
1236769,america,Abbey Dixon,985600,Rome,521470,02/22/1994
1236965,india,Leilani Holmes,984981,El Paso,521342,02/22/1994
1235558,america,Rihanna Mason,988924,Milwaukee,521995,07/20/1995
1238151,india,Carl Lowe,987954,Fullerton,522605,08/20/1995
1236558,america,Nate Richards,987471,Salem,521372,02/22/1994
1235994,india,Judith Todd,987994,Fullerton,521548,02/22/1994
1237925,america,Logan Silva,985615,Lakewood,522805,07/20/1995
1235098,india,Nick Morley,988276,Norfolk,522064,08/20/1995
1237461,america,Maia Vangness,984958,Seattle,521873,02/22/1994
1236375,india,Johnny Santos,985843,Lisbon,521722,02/22/1994
1237887,america,Matthew Simpson,986460,Washington,522070,07/20/1995
1235801,india,Barry Nelson,988820,Prague,522308,08/20/1995
1234768,america,Leroy Graves,986436,Colorado Springs,521825,02/22/1994
1238160,india,Gabriel Reid,986466,Seattle,521978,02/22/1994
1234894,america,Doug Graham,986157,Lisbon,521658,07/20/1995
1237689,india,Johnny Villiger,987133,Pittsburgh,521698,08/20/1995
1238306,america,Nate Asher,985090,Washington,521324,02/22/1994
1238298,india,Oliver Nobbs,985648,St. Louis,522602,02/22/1994
1236541,america,Hank Jarvis,986617,Bellevue,521489,07/20/1995
1237197,india,Clarissa Herbert,985350,Cincinnati,521799,08/20/1995
1237762,america,Jayden Ryan,987085,San Diego,521561,02/22/1994
1236820,india,Rihanna Hastings,985857,Boston,521292,02/22/1994
1236666,america,Johnny Lee,988099,Columbus,521166,07/20/1995
1238445,india,Samara Warren,986752,Berlin,522217,08/20/1995
1236885,america,Henry Poole,987703,Lyon,522496,02/22/1994
1235608,india,Chadwick Waterson,986384,Murfreesboro,522231,02/22/1994
1236440,america,Mary Selby,988664,San Jose,521155,07/20/1995
1236915,india,Tom Adams,984898,Springfield,521290,08/20/1995
1237025,america,Cristal Owen,986183,Berlin,521791,02/22/1994
1236283,india,Adela Baker,987789,Tulsa,522743,02/22/1994
1237148,america,Margaret Adler,987317,Lisbon,521221,07/20/1995
1237392,india,Marilyn Ellery,986900,St. Louis,521646,08/20/1995
1235795,america,Maxwell Redwood,986308,Madison,522962,02/22/1994
1236305,india,Rocco Swift,987333,Garland,521572,02/22/1994
1237297,america,Caleb Ianson,986015,Rome,522920,07/20/1995
1235052,india,Johnathan Uttley,986579,Innsbruck,521612,08/20/1995
1238785,america,Johnny Morrow,984955,Phoenix,521339,02/22/1994
1236794,india,Kieth Phillips,986847,Denver,522344,02/22/1994
1238594,america,Matt Moore,987155,Seattle,521858,07/20/1995
1237102,india,Lucas Osman,988184,Fremont,522958,08/20/1995
1237611,america,Beatrice Dixon,986149,Anaheim,522862,02/22/1994
1237839,india,Vivian Morgan,986166,Berna,522367,02/22/1994
1237269,america,Carl West,987248,Fort Lauderdale,522196,07/20/1995
1235865,india,Marigold Stewart,986029,San Antonio,522171,08/20/1995
1235174,america,Chadwick Woods,988388,Rochester,522940,02/22/1994
1237165,india,Penny Antcliff,986091,Ontario,522517,02/22/1994
1235605,america,Elijah Payne,988855,Glendale,522063,07/20/1995
1236508,india,Jasmine Hunt,987656,Zurich,522806,08/20/1995
1235824,america,Javier Andrews,988149,Orlando,522178,02/22/1994
1238930,india,Isla Vane,985226,Berlin,522704,02/22/1994
1237627,america,Leroy Cann,988013,Salem,521676,07/20/1995
1237548,india,Helen Kirby,985000,Laredo,521403,08/20/1995
1237524,america,Hadley Goodman,987538,Milwaukee,521459,02/22/1994
1235521,india,Isla Saunders,986594,Madison,522565,02/22/1994
1238917,america,Judith Campbell,985635,Tallahassee,521601,07/20/1995
1234728,india,Alison Yarlett,987149,Long Beach,522053,08/20/1995
1235420,america,Carla Griffiths,987724,Scottsdale,522782,02/22/1994
1236418,india,Owen Waterson,988736,Minneapolis,522394,02/22/1994
1234763,america,Nate Villiger,984707,Madrid,521972,07/20/1995
1238978,india,Adela Graham,986651,Madison,521184,08/20/1995
1235645,america,Doris Dunbar,987410,Bridgeport,521331,02/22/1994
1236089,india,Rocco Clifford,988404,Salem,522300,02/22/1994
1235031,america,Tyson Powell,985068,Phoenix,521194,07/20/1995
1236836,india,Sydney Franks,987037,Santa Ana,521426,08/20/1995
1235598,america,Javier Moss,985066,Worcester,521759,02/22/1994
1236677,india,Rocco Wooldridge,985175,Tulsa,521305,02/22/1994
1236253,america,Sloane Kent,988337,Saint Paul,522126,07/20/1995
1237303,india,Matthew Ainsworth,984721,Paris,521539,08/20/1995
1235639,america,Harvey Mcneill,985179,Springfield,522616,02/22/1994
1238111,india,Mayleen Harris,987358,El Paso,521354,02/22/1994
1238025,america,Marvin Ellis,988861,Jacksonville,522339,07/20/1995
1237917,india,Erick Kennedy,985047,Lincoln,521163,08/20/1995
1235724,america,Dakota Henderson,987868,Saint Paul,521230,02/22/1994
1234909,india,Melania Roberts,985263,Indianapolis,522244,02/22/1994
1234643,america,Tom Pratt,985415,El Paso,522377,07/20/1995
1235946,india,Penelope Shepherd,987152,Valetta,521983,08/20/1995
1238305,america,Anthony Barrett,985760,Glendale,521992,02/22/1994
1236029,india,Renee Salt,986309,Seattle,522331,02/22/1994
1238691,america,Benjamin Wilde,987547,Fayetteville,522709,07/20/1995
1235613,india,Jasmine Furnell,988710,El Paso,522033,08/20/1995
1235781,america,Lynn Morrison,988633,New York,521234,02/22/1994
1237808,india,John Waterhouse,988642,Amarillo,521283,02/22/1994
1234787,america,Rosa John,984835,Anaheim,522288,07/20/1995
1237277,india,Marilyn Lakey,986394,Omaha,522106,08/20/1995
1235047,america,Marilyn Hood,984968,Scottsdale,521894,02/22/1994
1235697,india,Zoe Boden,984902,Portland,522862,02/22/1994
1237181,america,Roger Doherty,987437,St. Louis,521731,07/20/1995
1236364,india,Claire Owen,987786,Fort Lauderdale,521919,08/20/1995
1237068,america,Valentina Fox,986056,Lakewood,521402,02/22/1994
1236818,india,Elijah Vane,985588,Toledo,522159,02/22/1994
1236091,america,Alexia Bingham,988815,Rochester,522001,07/20/1995
1235640,india,Gabriel Powell,988869,San Antonio,521574,08/20/1995
1237628,america,Abdul Wheeler,987458,Long Beach,521217,02/22/1994
1234872,india,Javier Thornton,988959,Rome,521325,02/22/1994
1237013,america,Daniel Wise,988349,Hollywood,522895,07/20/1995
1234790,india,Martin Robe,985248,Seattle,522976,08/20/1995
1236395,america,Enoch Durrant,988446,Philadelphia,522225,02/22/1994
1238543,india,Rosalee Nicolas,984613,Otawa,521146,02/22/1994
1237205,america,Lexi Rycroft,986223,Madison,521547,07/20/1995
1235924,india,Adelaide Reyes,986811,Albuquerque,521318,08/20/1995
1238032,america,Adela Paterson,987281,Colorado Springs,521200,02/22/1994
1236598,india,Analise Glynn,985463,Glendale,522656,02/22/1994
1238573,america,Zoe Hobson,988400,Columbus,521414,07/20/1995
1235406,india,Alba Olson,985418,Ontario,522797,08/20/1995
1238968,america,Hayden Douglas,988008,Denver,522649,02/22/1994
1238162,india,Wade Lindsay,987196,Chicago,521646,02/22/1994
1234666,america,Daria Kaur,986503,London,522619,07/20/1995
1238598,india,Johnny Dann,987486,Washington,522719,08/20/1995
1235686,america,Nick Cooper,986214,Los Angeles,522701,02/22/1994
1234765,india,Ronald Emmott,986244,Oklahoma City,522493,02/22/1994
1235239,america,Evie Gaynor,987708,Memphis,522361,07/20/1995
1238626,india,Elle Martin,985976,Charlotte,521383,08/20/1995
1235976,america,Elijah Calderwood,986742,Miami,522162,02/22/1994
1235537,india,Michelle Armstrong,987158,Stockton,522887,02/22/1994
1236936,america,Callie Jennson,987005,Chicago,522555,07/20/1995
1234805,india,Nicholas Drew,984642,Anaheim,522313,08/20/1995
1236417,america,Roger Waterhouse,987162,Chicago,522963,02/22/1994
1235058,india,Matt Keys,988922,San Antonio,522583,02/22/1994
1238133,america,Nick Herbert,988615,Kansas City,521819,07/20/1995
1236326,india,Angelique Sloan,988144,Madrid,522893,08/20/1995
1237236,america,Hank Jobson,985078,Los Angeles,522491,02/22/1994
1234654,india,Marigold Mitchell,987573,Dallas,522932,02/22/1994
1237947,america,Miriam Gordon,986443,Toledo,521481,07/20/1995
1234641,india,Bob Murphy,987551,Prague,522342,08/20/1995
1236934,america,Aisha Holmes,985518,Saint Paul,521360,02/22/1994
1235081,india,Goldie Kidd,985264,San Jose,522688,02/22/1994
1235049,america,William Rigg,988185,Honolulu,521407,07/20/1995
1237952,india,Faith Parker,987553,Madrid,521643,08/20/1995
1235073,america,Noah Morris,985276,Saint Paul,522301,02/22/1994
1237059,india,Johnny Todd,988918,Berna,521155,02/22/1994
1238901,america,Michael Morris,988805,Bakersfield,521324,07/20/1995
1238980,india,Chloe Simpson,984787,Bucharest,522071,08/20/1995
1234893,america,Cedrick Benfield,986184,El Paso,521414,02/22/1994
1234783,india,Nate Wild,988716,Fayetteville,522027,02/22/1994
1238221,america,Domenic Myatt,987489,Long Beach,521841,07/20/1995
1237460,india,Mike Andrews,985727,Jacksonville,522425,08/20/1995
1236716,america,Mark Partridge,987464,Escondido,522611,02/22/1994
1237702,india,Shay Waterson,985317,Milano,521495,02/22/1994
1236991,america,Priscilla Lindop,986853,Fort Lauderdale,522516,07/20/1995
1237208,india,Renee Mould,986226,Houston,522843,08/20/1995
1235908,america,Aisha Bayliss,986693,Lisbon,521285,02/22/1994
1236055,india,Anthony Adams,985205,Madison,522548,02/22/1994
1236781,america,Jackeline Quinton,985699,Saint Paul,521882,07/20/1995
1237926,india,Mason Callan,987258,St. Louis,522324,08/20/1995
1237121,america,Hank Wise,985179,Santa Ana,521893,02/22/1994
1236851,india,Celia Pitt,985600,Fort Lauderdale,522684,02/22/1994
1238157,america,Tania Baker,986700,Bellevue,521513,07/20/1995
1236297,india,Nicholas Spencer,988837,Innsbruck,521182,08/20/1995
1238311,america,Boris Chappell,985180,Salem,521720,02/22/1994
1237652,india,Jasmine Mcnally,988252,Honolulu,522771,02/22/1994
1237982,america,Barry Brennan,986416,Baltimore,522989,07/20/1995
1238273,india,Javier Upsdell,985037,Colorado Springs,521157,08/20/1995
1238322,america,Maia Broomfield,987708,Huntsville,521921,02/22/1994
1235371,india,Gloria Graham,986984,Bucharest,522573,02/22/1994
1237395,america,Remy Rehman,987840,Saint Paul,522951,07/20/1995
1237788,india,Marissa Gallacher,986089,Moreno Valley,521984,08/20/1995
1235228,america,Elijah Webster,984908,Irving,522712,02/22/1994
1237033,india,Carmella Woodcock,987378,Fremont,521200,02/22/1994
1236272,america,Alba Yard,984777,Moreno Valley,521485,07/20/1995
1235534,india,Britney Thatcher,988741,Glendale,522508,08/20/1995
1237229,america,Hannah Newton,985578,Long Beach,522350,02/22/1994
1238612,india,Anthony Webster,987433,Hayward,521833,02/22/1994
1237361,america,Erick Ingham,985707,Reno,521336,07/20/1995
1237885,india,Regina Salt,987060,Memphis,522805,08/20/1995
1238503,america,Mark Kennedy,985938,Rome,522446,02/22/1994
1236938,india,Ciara Cadman,988418,Wien,522165,02/22/1994
1237966,america,Oliver Moreno,988811,Reno,522081,07/20/1995
1236412,india,Benny Khan,986974,Kansas City,521124,08/20/1995
1238767,america,Chadwick Thorne,986009,Arlington,522797,02/22/1994
1238619,india,Bryce Taylor,984873,El Paso,521983,02/22/1994
1236126,america,Jack Burge,986643,Amarillo,521593,07/20/1995
1236402,india,Percy Neville,987744,Bakersfield,522735,08/20/1995
1235193,america,Julianna Butler,985835,San Jose,521927,02/22/1994
1236553,india,Fred Fisher,986682,Los Angeles,521378,02/22/1994
1234760,america,Bree Pitt,986124,Minneapolis,522204,07/20/1995
1236707,india,Ethan Mackenzie,986378,Tulsa,522451,08/20/1995
1236273,america,Matthew Thornton,987770,Worcester,522616,02/22/1994
1236873,india,Summer Smith,986984,Laredo,522523,02/22/1994
1237031,america,Brad Stanton,984933,Dallas,522842,07/20/1995
1237188,india,Amy Exton,987698,Sacramento,521720,08/20/1995
1235394,america,Joseph Seymour,984946,San Jose,521315,02/22/1994
1235956,india,Anabel Ward,985966,Huntsville,522734,02/22/1994
1236367,america,Sebastian Stanley,986668,Lakewood,522019,07/20/1995
1238526,india,Tony Fall,986228,Salem,522923,08/20/1995
1236243,america,Melania Robe,988660,Valetta,522583,02/22/1994
1238075,india,Carol Miller,985964,Orlando,522828,02/22/1994
1238673,america,Denis Smith,985924,Milano,522914,07/20/1995
1235046,india,Eryn Penn,986188,Springfield,522428,08/20/1995
1237829,america,Oliver Ebden,986883,Tulsa,521450,02/22/1994
1235380,india,Eduardo Plumb,987509,Columbus,522033,02/22/1994
1234934,america,Clarissa Mooney,984810,Oklahoma City,522650,07/20/1995
1238499,india,Adalie Flanders,987512,Worcester,522480,08/20/1995
1236763,america,Barney Knight,988674,Memphis,522005,02/22/1994
1237728,india,Tara Sylvester,985477,Hayward,521339,02/22/1994
1236391,america,Logan Leslie,985368,Scottsdale,521412,07/20/1995
1235498,india,Cedrick Oswald,988452,Irving,522638,08/20/1995
1234947,america,Sharon Greenwood,985558,Venice,522433,02/22/1994
1235930,india,Shay Poole,987801,Long Beach,522535,02/22/1994
1238417,america,Nick Hamilton,984615,Quebec,522990,07/20/1995
1237979,india,Kaylee Bowen,988523,Rochester,522078,08/20/1995
1237391,america,Michelle Rehman,988199,Reno,522486,02/22/1994
1238618,india,Mason Holmes,987773,Boston,522294,02/22/1994
1236639,america,Chanelle Tanner,988937,Tokyo,521834,07/20/1995
1238766,india,Alessia Cork,987724,Tulsa,521444,08/20/1995
1236920,america,Kieth Oatway,986797,Richmond,522269,02/22/1994
1234673,india,Alex Neal,985956,San Antonio,521870,02/22/1994
1237938,america,Samantha Harrington,986704,Madison,522121,07/20/1995
1234778,india,Joseph Moss,986965,Orlando,522176,08/20/1995
1237753,america,Amy Wilton,986226,Fayetteville,521135,02/22/1994
1236515,india,Rufus Abbey,985612,Lancaster,521420,02/22/1994
1237676,america,Aisha Tobin,986645,Philadelphia,522512,07/20/1995
1238811,india,Anthony Leigh,987770,Stockton,521651,08/20/1995
1238309,america,Anthony Addis,987171,Memphis,521662,02/22/1994
1235825,india,Bernadette Rixon,987679,Innsbruck,522030,02/22/1994
1238569,america,Dakota Gregory,988564,Albuquerque,522904,07/20/1995
1234725,india,Ryan Bell,986631,Orlando,522558,08/20/1995
1235020,america,Tom Howard,987604,Salt Lake City,521669,02/22/1994
1236765,india,Doug Larsen,985626,Indianapolis,521816,02/22/1994
1236989,america,Darlene Denton,986275,Glendale,522530,07/20/1995
1236775,india,Tyson Upton,984955,Ontario,522300,08/20/1995
1238184,america,Cristal Patel,985143,Minneapolis,522990,02/22/1994
1237899,india,Jasmine Nayler,987579,Las Vegas,521522,02/22/1994
1236385,america,Melody Davies,985180,Denver,522548,07/20/1995
1236165,india,Estrella Farrell,987929,New Orleans,522332,08/20/1995
1237636,america,Gwenyth Quinton,987771,Fremont,522370,02/22/1994
1238859,india,Oliver Wright,986537,Scottsdale,522442,02/22/1994
1238685,america,William Russel,987180,New Orleans,521428,07/20/1995
1238894,india,Rick Dallas,986698,Fremont,522044,08/20/1995
1238712,america,Manuel Hewitt,986662,Irving,522257,02/22/1994
1237216,india,Kieth Norton,988036,Glendale,522914,02/22/1994
1238860,america,Tony Mccormick,985868,Orlando,522180,07/20/1995
1237363,india,Martin Swift,987592,Richmond,521711,08/20/1995
1236952,america,Benjamin Vaughn,984683,Hayward,522452,02/22/1994
1234903,india,Dani Hamilton,987347,New York,521354,02/22/1994
1238260,america,Rose Campbell,985544,Washington,521390,07/20/1995
1236882,india,Jacob Hall,988734,Memphis,521528,08/20/1995
1238341,america,Russel Mcnally,984631,Jacksonville,521533,02/22/1994
1235497,india,Juliet Fisher,987408,Minneapolis,522380,02/22/1994
1236928,america,Eryn Johnson,987977,Lisbon,521784,07/20/1995
1238440,india,Angelica Willson,988403,Pittsburgh,522437,08/20/1995
1236353,america,Dorothy Button,985846,Stockton,522184,02/22/1994
1238085,india,Carl Vangness,987587,Memphis,521962,02/22/1994
1237830,america,George Morgan,987624,Lakewood,521721,07/20/1995
1238465,india,Christine Rothwell,984929,Nashville,521636,08/20/1995
1238945,america,Jayden Gordon,988997,Atlanta,522344,02/22/1994
1238659,india,Norah Owen,985603,Norfolk,521596,02/22/1994
1236563,america,Alessandra Hood,986160,Stockton,521946,07/20/1995
1237210,india,Marina Forth,987321,Fayetteville,521227,08/20/1995
1236782,america,Rosalie Graham,986777,Miami,521594,02/22/1994
1235586,india,Candice Harris,987746,Huntsville,521503,02/22/1994
1234899,america,David Cartwright,987054,Lakewood,522807,07/20/1995
1234898,india,Aiden Cameron,984921,Albuquerque,522647,08/20/1995
1235238,america,Janelle Miller,988926,Colorado Springs,522765,02/22/1994
1236137,india,Logan Dunbar,987278,Santa Ana,521508,02/22/1994
1236514,america,Amelia Rogers,984810,Washington,522297,07/20/1995
1238404,india,John Shields,987742,Moreno Valley,521532,08/20/1995
1236358,america,Peter Nielson,985867,Salem,522051,02/22/1994
1235706,india,Maribel Amstead,984646,Richmond,521217,02/22/1994
1238290,america,Stacy Cox,987888,Berna,521861,07/20/1995
1235317,india,Tyson Dale,985051,Toledo,521377,08/20/1995
1235938,america,Johnathan James,987935,Salem,522770,02/22/1994
1238394,india,Tara Armstrong,988615,Orlando,521531,02/22/1994
1234914,america,Hank Avery,987513,Toledo,521770,07/20/1995
1237898,india,Shay Jennson,984901,Reno,521724,08/20/1995
1237794,america,Hank Shields,987249,Huntsville,522818,02/22/1994
1235846,india,Melinda Hilton,985379,Seattle,522953,02/22/1994
1238585,america,Makena Everett,988457,Amarillo,521895,07/20/1995
1238657,india,Aisha Blackburn,988209,San Antonio,522737,08/20/1995
1236502,america,Adina Price,988004,Oklahoma City,522641,02/22/1994
1235775,india,Rihanna Holt,984999,San Jose,522793,02/22/1994
1235941,america,Wade Benfield,984723,Kansas City,522387,07/20/1995
1237241,india,Rachael Bennett,985300,Fullerton,522551,08/20/1995
1235922,america,Cristal Stuart,984806,Memphis,522691,02/22/1994
1235810,india,Johnathan Rothwell,984850,Garland,522647,02/22/1994
1236532,america,Sydney Tait,986368,San Diego,522245,07/20/1995
1236937,india,Sonya Eyres,984982,Jersey City,521866,08/20/1995
1237036,america,Molly Uddin,986939,Miami,522007,02/22/1994
1236406,india,Christine Rodwell,988088,Philadelphia,521318,02/22/1994
1235308,america,Julian Corbett,988567,Lyon,521621,07/20/1995
1238321,india,Carissa Terry,988962,Escondido,521749,08/20/1995
1235176,america,Ronald Locke,986496,Reno,521125,02/22/1994
1236328,india,Karla Upsdell,985680,Rome,521299,02/22/1994
1237894,america,Luna Rivers,985212,Dallas,521152,07/20/1995
1235823,india,Tyson Cox,986626,Hollywood,521385,08/20/1995
1236777,america,Logan Kidd,986523,Memphis,521717,02/22/1994
1235342,india,Matthew Savage,984976,El Paso,521426,02/22/1994
1235036,america,Lexi Shaw,988928,Albuquerque,521576,07/20/1995
1234795,india,Isabella Wren,987598,Las Vegas,521305,08/20/1995
1234646,america,Ember Lane,985860,Salt Lake City,521415,02/22/1994
1234604,india,Winnie Uddin,985770,Otawa,521666,02/22/1994
1236429,america,Bryon Gallacher,985180,Miami,522966,07/20/1995
1238719,india,Juliette Turner,988505,Columbus,521489,08/20/1995
1237721,america,Hayden Bryson,987085,Bridgeport,521578,02/22/1994
1238021,india,Cherish Underhill,988659,Scottsdale,521833,02/22/1994
1235619,america,Doris Cameron,986834,Albuquerque,521358,07/20/1995
1237151,india,Mary Hobson,985635,Los Angeles,521562,08/20/1995
1236595,america,Faith Ward,986997,Hayward,521987,02/22/1994
1236687,india,Erick Maxwell,985624,Moreno Valley,522697,02/22/1994
1238793,america,Stacy Hill,985933,Louisville,522358,07/20/1995
1238102,india,Tom Collingwood,986135,Charlotte,521966,08/20/1995
1238686,america,Nate Lynn,985629,Scottsdale,521615,02/22/1994
1236897,india,Candace Carter,986233,Moreno Valley,521492,02/22/1994
1238149,america,Rick Jenkin,986363,Houston,521450,07/20/1995
1234792,india,Natalie Morris,988232,New Orleans,522893,08/20/1995
1238841,america,Rihanna Graves,985283,Ontario,522741,02/22/1994
1238232,india,Julianna Terry,986319,Orlando,522818,02/22/1994
1237134,america,David Myatt,988142,Fayetteville,521505,07/20/1995
1234928,india,Iris Campbell,986248,Prague,521571,08/20/1995
1238873,america,Chuck Newman,988442,Scottsdale,522078,02/22/1994
1235237,india,Harriet Yang,988642,Long Beach,522507,02/22/1994
1235162,america,Luke Sheldon,987052,Garland,522723,07/20/1995
1236642,india,Barney Michael,986961,St. Louis,522883,08/20/1995
1238706,america,Anabelle Skinner,984954,Henderson,521989,02/22/1994
1235314,india,Elise Mullins,985222,San Francisco,521312,02/22/1994
1237481,america,Lara Nicholls,987711,Baltimore,521332,07/20/1995
1238265,india,Melania Lewin,986445,Bucharest,522722,08/20/1995
1235165,america,Blake Torres,984788,Charlotte,522425,02/22/1994
1238862,india,John Mann,988427,Murfreesboro,522631,02/22/1994
1236838,america,Celina Uttley,984618,Quebec,522951,07/20/1995
1235422,india,Faith Gray,987270,Saint Paul,521567,08/20/1995
1237791,america,Roger Attwood,987864,Salt Lake City,522325,02/22/1994
1237798,india,Daron Trent,987791,Berna,521183,02/22/1994
1238643,america,Melody Hammond,986074,Quebec,521247,07/20/1995
1238029,india,Rihanna Armstrong,988071,Lancaster,521364,08/20/1995
1234932,america,Phillip Hunt,987182,Denver,522817,02/22/1994
1238985,india,Kurt Camden,984756,St. Louis,522684,02/22/1994
1238123,america,Bryce Morris,987025,Columbus,522618,07/20/1995
1234749,india,Jamie Spencer,985322,Houston,522103,08/20/1995
1238198,america,Ronald Tutton,986415,New York,522070,02/22/1994
1236142,india,Hayden Driscoll,986869,Detroit,522004,02/22/1994
1238194,america,Isla Riley,986952,Laredo,521673,07/20/1995
1237204,india,Mary Holmes,988456,Lancaster,522566,08/20/1995
1238532,america,Anthony Parker,986597,New Orleans,521515,02/22/1994
1235528,india,Chris Whinter,986768,Laredo,522792,02/22/1994
1235576,america,Havana Crawley,988544,Charlotte,521130,07/20/1995
1235148,india,Beatrice Bailey,988695,Chicago,521191,08/20/1995
1238094,america,Elise Haines,985857,Bakersfield,522344,02/22/1994
1237883,india,Denny Graham,986898,Jacksonville,522710,02/22/1994
1238420,america,Gil Eaton,988514,Atlanta,521967,07/20/1995
1236557,india,Bob Cork,985971,Valetta,521596,08/20/1995
1235179,america,Denis Cassidy,986678,Memphis,521163,02/22/1994
1234729,india,Domenic Franks,988292,Sacramento,522761,02/22/1994
1235607,america,Tom Partridge,986155,Honolulu,522782,07/20/1995
1237473,india,Ivette Rigg,986841,Memphis,522834,08/20/1995
1234614,america,Kieth Matthews,988812,Anaheim,521268,02/22/1994
1235969,india,Susan Baldwin,985843,Baltimore,521699,02/22/1994
1235556,america,Danny Emmett,988543,Ontario,522553,07/20/1995
1238508,india,Miley Thomas,987705,Fayetteville,522576,08/20/1995
1236449,america,Angela Newman,988331,Valetta,521982,02/22/1994
1238605,india,Jack May,988375,Irving,522634,02/22/1994
1237759,america,Michael Appleton,988858,Pittsburgh,522313,07/20/1995
1234922,india,Wade Corbett,985899,Rochester,521738,08/20/1995
1237390,america,Shay Hewitt,985989,Charlotte,522711,02/22/1994
1238381,india,Sloane Zaoui,988997,Berna,521660,02/22/1994
1236521,america,Rosemary Jefferson,984718,Saint Paul,522226,07/20/1995
1236855,india,Samara Bristow,988598,Miami,521882,08/20/1995
1238533,america,Leroy Robertson,988614,Madrid,522927,02/22/1994
1237484,india,Rosalie Harris,985681,Springfield,522413,02/22/1994
1236093,america,Teagan Dallas,984639,Bakersfield,522535,07/20/1995
1236413,india,Angela Selby,986996,Zurich,522499,08/20/1995
1235214,america,Adina Riley,988217,Louisville,521407,02/22/1994
1238181,india,Josh Lane,987005,Detroit,522017,02/22/1994
1236728,america,Carla Barrett,984734,Springfield,521561,07/20/1995
1236647,india,John Summers,984678,Henderson,521226,08/20/1995
1236674,america,Regina Lloyd,986144,Norfolk,522428,02/22/1994
1237914,india,Hayden Giles,987449,Philadelphia,522612,02/22/1994
1237122,america,Audrey Osmond,985554,Boston,521706,07/20/1995
1236234,india,Javier Leslie,987301,New York,521377,08/20/1995
1235727,america,Hannah Hogg,986434,Louisville,522583,02/22/1994
1236797,india,Phillip Rowe,987686,Bucharest,521170,02/22/1994
1237682,america,Cedrick Drake,986979,Prague,522690,07/20/1995
1235684,india,Sydney Clifton,985853,Berlin,522165,08/20/1995
1236913,america,Zara Dwyer,987496,Innsbruck,521573,02/22/1994
1235203,india,Joseph Morgan,988092,Innsbruck,522674,02/22/1994
1238973,america,Chuck Hudson,988765,San Bernardino,521525,07/20/1995
1237145,india,Wade Hammond,986866,Murfreesboro,521870,08/20/1995
1235262,america,Destiny Patel,987106,Santa Ana,521831,02/22/1994
1235709,india,Tyler Fall,988043,Lancaster,522425,02/22/1994
1234660,america,Jack Alexander,985016,Saint Paul,522091,07/20/1995
1236633,india,Nick Vass,985609,Sacramento,521607,08/20/1995
1236179,america,Eduardo Lee,986700,Lincoln,521126,02/22/1994
1235694,india,Roger Mcneill,987928,Louisville,522894,02/22/1994
1235114,america,Judith Doherty,988750,Tallahassee,522980,07/20/1995
1234653,india,David Moore,987581,Stockton,522321,08/20/1995
1237108,america,Gina Fox,988197,Detroit,522878,02/22/1994
1235516,india,Rita Cadman,985007,Long Beach,522875,02/22/1994
1235920,america,Evelynn Rogan,985760,New York,521937,07/20/1995
1235536,india,Danny Grady,985712,Murfreesboro,522726,08/20/1995
1234613,america,Adela Nicolas,987978,Hayward,522072,02/22/1994
1235392,india,Maxwell Hopkinson,987537,Reno,522249,02/22/1994
1237333,america,Harvey Hunt,984692,Fremont,521572,07/20/1995
1236022,india,Elisabeth Griffiths,986408,Zurich,522531,08/20/1995
1234624,america,Ron Malone,986318,Norfolk,521403,02/22/1994
1234859,india,Kurt Harrison,987995,San Antonio,522076,02/22/1994
1238734,america,Camden Mason,988439,Cincinnati,522470,07/20/1995
1237043,india,Jacob Ingram,985088,Detroit,522404,08/20/1995
1234986,america,Boris Bingham,986210,San Bernardino,521857,02/22/1994
1237288,india,Julian Gordon,987505,Richmond,521236,02/22/1994
1237194,america,Bree Milner,985234,Milwaukee,522367,07/20/1995
1238960,india,Kieth Vallory,987016,Paris,521544,08/20/1995
1235120,america,Chuck Cassidy,988975,Otawa,521641,02/22/1994
1238887,india,Barney Bullock,986055,Seattle,522566,02/22/1994
1235286,america,Vicky Smith,985342,Wien,522032,07/20/1995
1234857,india,Jackeline Thorne,985877,San Jose,522184,08/20/1995
1234968,america,Alan Strong,986362,Laredo,522181,02/22/1994
1236696,india,Joseph Ring,985720,London,522778,02/22/1994
1238253,america,Gabriel Lindop,986909,Dallas,521187,07/20/1995
1238424,india,Harry Duvall,986124,Detroit,522684,08/20/1995
1237749,america,Chadwick Bowen,985384,London,522574,02/22/1994
1236720,india,Adelaide Allcott,988184,Salem,521619,02/22/1994
1237410,america,Jayden Tyler,984717,Kansas City,522656,07/20/1995
1238963,india,Thea Redfern,986405,Berna,521345,08/20/1995
1236848,america,Hazel Rowe,986310,Stockton,521133,02/22/1994
1235664,india,Marissa Denton,988835,Columbus,521364,02/22/1994
1238002,america,Carol Hancock,987093,Dallas,522496,07/20/1995
1238836,india,Barry Yard,988070,Madrid,522671,08/20/1995
1237573,america,Michael Attwood,987558,Tallahassee,521271,02/22/1994
1237310,india,Callie Cann,986152,Tallahassee,521253,02/22/1994
1236288,america,David Amstead,987708,Lakewood,522513,07/20/1995
1234995,india,Cassidy King,988537,Baltimore,521155,08/20/1995
1235329,america,John Miller,987199,Irving,522177,02/22/1994
1238106,india,Johnathan Harris,984686,Anaheim,522233,02/22/1994
1236887,america,Rosalie Dobson,987862,Paris,521141,07/20/1995
1238849,india,Louise Mcneill,985419,San Antonio,521662,08/20/1995
1238852,america,Nate May,988376,Bellevue,521738,02/22/1994
1237677,india,Nate Graves,987503,Berlin,522667,02/22/1994
1237534,america,Paula Riley,986898,Glendale,521736,07/20/1995
1238284,india,Boris Poulton,988339,Springfield,522460,08/20/1995
1236637,america,Judith Alldridge,985852,Moreno Valley,522532,02/22/1994
1235987,india,Tyson Martin,987626,Miami,521189,02/22/1994
1235363,america,Mavis Casey,984812,Toledo,521485,07/20/1995
1234582,india,Lucy Vane,985942,Jacksonville,522383,08/20/1995
1234592,america,Brad Williams,986395,Albuquerque,521667,02/22/1994
1236008,india,Bryon Cunningham,986724,Los Angeles,521845,02/22/1994
1238240,america,Harvey Brock,985929,Hollywood,522654,07/20/1995
1237289,india,Cadence Saunders,985693,Fort Lauderdale,521136,08/20/1995
1235010,america,Faith Stevenson,985207,Jacksonville,521531,02/22/1994
1234756,india,Lynn Lakey,986709,Moreno Valley,522585,02/22/1994
1237452,america,Matt James,987484,Tulsa,522714,07/20/1995
1235251,india,Barry Avery,987992,San Jose,522209,08/20/1995
1238304,america,Claire Flack,985638,Paris,522390,02/22/1994
1235256,india,Britney Ellery,984662,Albuquerque,522240,02/22/1994
1234864,america,Tony Todd,987001,Omaha,521559,07/20/1995
1238457,india,Sage Ogilvy,987066,Indianapolis,521444,08/20/1995
1234830,america,Michael Whinter,985714,Jacksonville,521314,02/22/1994
1237045,india,Greta Moore,986502,Reno,521580,02/22/1994
1235005,america,Rick Reid,984984,London,521983,07/20/1995
1234674,india,Regina Foxley,987731,Kansas City,522414,08/20/1995
1236724,america,Matthew Ballard,985943,Columbus,521368,02/22/1994
1235270,india,Kimberly Underhill,984665,Rome,522934,02/22/1994
1237530,america,Benjamin Whitmore,986719,Detroit,521322,07/20/1995
1237365,india,Bristol Johnson,988532,Atlanta,522421,08/20/1995
1236095,america,Tania Cartwright,986286,Madrid,521136,02/22/1994
1238893,india,Lucas Dillon,988564,Amarillo,522907,02/22/1994
1235988,america,Martin Norton,985744,Hollywood,521554,07/20/1995
1236602,india,Chadwick Wise,986860,Detroit,522574,08/20/1995
1235016,america,Cecilia Moore,988816,Henderson,522273,02/22/1994
1237911,india,John Furnell,986920,Berna,521914,02/22/1994
1237143,america,Kendra Raven,985285,Madrid,521197,07/20/1995
1238429,india,Kurt Shields,986976,Lyon,521399,08/20/1995
1237116,america,Nate Stubbs,988140,Louisville,522243,02/22/1994
1234625,india,Leroy Nobbs,988650,Atlanta,521318,02/22/1994
1237434,america,Jayden Foxley,987118,Atlanta,521281,07/20/1995
1234777,india,Josephine Huggins,986839,Bakersfield,522602,08/20/1995
1237924,america,Ruth Carter,987379,San Jose,521366,02/22/1994
1235152,india,Harriet Roscoe,986039,Madrid,522417,02/22/1994
1235503,america,Sofie Hobson,986619,Detroit,522848,07/20/1995
1238680,india,Dorothy Oliver,988590,Stockton,521618,08/20/1995
1235883,america,Rachael Gallacher,985945,Berna,522581,02/22/1994
1235715,india,Candace Todd,985992,Dallas,521561,02/22/1994
1235360,america,Gil Hardwick,986512,Garland,521145,07/20/1995
1237740,india,Nate Lyon,987085,Salt Lake City,522383,08/20/1995
1236260,america,Danielle Fisher,987868,Laredo,522290,02/22/1994
1238127,india,Melinda Locke,988944,Atlanta,521406,02/22/1994
1236718,america,Mona Lane,988787,Oklahoma City,522820,07/20/1995
1238875,india,Camila Gosling,986653,Lisbon,522660,08/20/1995
1237613,america,Cassandra Brooks,985972,Santa Ana,522434,02/22/1994
1235479,india,Ilona Owen,986946,Lisbon,522117,02/22/1994
1238992,america,Camellia Connell,985442,San Antonio,522826,07/20/1995
1236995,india,Peter Wigley,987222,Worcester,522591,08/20/1995
1235948,america,Margot Lloyd,986706,Berna,521552,02/22/1994
1237009,india,Bethany Gordon,987110,Arlington,521283,02/22/1994
1236343,america,Julia Cobb,987388,Philadelphia,521486,07/20/1995
1236680,india,Aeris Ryan,988002,Moreno Valley,522642,08/20/1995
1236277,america,Abdul Rixon,988126,Salem,522357,02/22/1994
1236538,india,Sabrina Judd,985949,Baltimore,521883,02/22/1994
1235273,america,Alexa Judd,987352,Innsbruck,521146,07/20/1995
1237741,india,Eden Abbey,985250,Atlanta,521124,08/20/1995
1234630,america,Mackenzie Doherty,987722,St. Louis,522689,02/22/1994
1238736,india,Rocco Campbell,985848,Rochester,521578,02/22/1994
1237550,america,Johnathan Johnson,987926,Prague,522245,07/20/1995
1238412,india,Bart Whinter,988087,Louisville,522697,08/20/1995
1237574,america,Renee Thornton,985412,Quebec,522655,02/22/1994
1237249,india,Brooklyn Archer,985867,Columbus,522689,02/22/1994
1235369,america,Chris Roth,988038,New York,521337,07/20/1995
1235772,india,Jack Casey,984783,Garland,521930,08/20/1995
1235102,america,Benny Gregory,988829,Miami,522533,02/22/1994
1235848,india,Ramon Simpson,987972,Philadelphia,521618,02/22/1994
1237761,america,Margaret Morris,988546,Detroit,521980,07/20/1995
1235952,india,Barney Becker,988047,Salem,521159,08/20/1995
1237635,america,Janelle Lunt,987966,Bakersfield,522648,02/22/1994
1235572,india,Adina Lowe,985912,Wien,522510,02/22/1994
1235560,america,Phillip Dixon,986677,Ontario,522759,07/20/1995
1238285,india,Hayden Burge,987488,Cincinnati,522195,08/20/1995
1236559,america,Carmen Kelly,984879,Phoenix,522250,02/22/1994
1235425,india,Penny Duvall,987269,Laredo,521897,02/22/1994
1234662,america,Jaylene Atkinson,985188,Fullerton,522373,07/20/1995
1236347,india,Nicholas Gray,987328,New York,521206,08/20/1995
1235789,america,Piper Silva,985164,Los Angeles,522793,02/22/1994
1236162,india,Savannah Barclay,988818,Tokyo,521151,02/22/1994
1238408,america,Nathan Partridge,988689,San Francisco,521363,07/20/1995
1234806,india,Abbey Brett,987766,Salem,521516,08/20/1995
1238130,america,Janelle Allcott,985721,Zurich,521776,02/22/1994
1236122,india,Adeline Gilbert,987078,Bellevue,522036,02/22/1994
1238450,america,Kimberly Newman,986201,Las Vegas,521560,07/20/1995
1236145,india,Aiden Connell,987817,Pittsburgh,521568,08/20/1995
1237604,america,Bridget Fox,986854,Prague,521347,02/22/1994
1236729,india,Bryon Jordan,987712,Springfield,521264,02/22/1994
1237546,america,Angelica Ballard,986856,Murfreesboro,521582,07/20/1995
1238204,india,Denny Wright,987160,Columbus,522657,08/20/1995
1236130,america,Lucas Hall,988995,Lincoln,522103,02/22/1994
1235443,india,Bob Brooks,985961,Colorado Springs,521145,02/22/1994
1234912,america,Gil Morris,985323,Tokyo,522628,07/20/1995
1235079,india,Erick Booth,984804,Tallahassee,521442,08/20/1995
1234880,america,Rowan Thorpe,985454,Fayetteville,521749,02/22/1994
1238941,india,Meredith Vass,986579,Indianapolis,522021,02/22/1994
1238914,america,Liam Hobbs,988191,Houston,521628,07/20/1995
1237015,india,Alessandra Miller,985338,Richmond,522357,08/20/1995
1235297,america,Amelia Bryant,986620,San Francisco,521270,02/22/1994
1237418,india,Denis Morley,985175,Denver,521301,02/22/1994
1237275,america,Phillip Blackburn,985177,Norfolk,521900,07/20/1995
1238384,india,Aiden Blythe,987097,Venice,522704,08/20/1995
1237380,america,Carl Campbell,988419,Phoenix,522599,02/22/1994
1237688,india,Sebastian Morgan,987990,Charlotte,521739,02/22/1994
1237455,america,Bryon Donovan,984707,Los Angeles,521229,07/20/1995
1238365,india,Piper Potter,986250,El Paso,521231,08/20/1995
1237701,america,Sebastian Squire,986524,El Paso,521882,02/22/1994
1236102,india,John Cox,985486,Stockton,522083,02/22/1994
1234631,america,David Vollans,988761,Lakewood,521188,07/20/1995
1236714,india,Taylor Andrews,985012,Lisbon,521754,08/20/1995
1237282,america,Domenic Emmett,985365,Boston,522283,02/22/1994
1238018,india,Georgia Dubois,988935,Oklahoma City,521712,02/22/1994
1237737,america,Rita Ross,988610,El Paso,522378,07/20/1995
1236682,india,Mike Becker,988771,Lincoln,521527,08/20/1995
1236062,america,Denis Rothwell,987706,Bridgeport,522518,02/22/1994
1235004,india,Adeline Lewin,985015,Escondido,522521,02/22/1994
1237774,america,Clarissa Harris,985894,San Bernardino,522890,07/20/1995
1234746,india,Josephine Woodcock,987044,Bellevue,522081,08/20/1995
1236824,america,Benjamin Goldsmith,988037,Richmond,521668,02/22/1994
1238199,india,Harriet Saunders,984708,Tokyo,522247,02/22/1994
1234588,america,Carter Terry,985607,Baltimore,521187,07/20/1995
1236148,india,Claire Samuel,985121,Cincinnati,522567,08/20/1995
1235600,america,Chadwick Bradshaw,988643,Worcester,521259,02/22/1994
1237400,india,Jayden Vaughan,984951,New Orleans,522871,02/22/1994
1235967,america,Leslie Bishop,987231,Paris,522605,07/20/1995
1238274,india,Daphne Booth,986604,Albuquerque,522208,08/20/1995
1236487,america,Megan Hill,988856,Los Angeles,522858,02/22/1994
1236219,india,Matt Franks,986914,Madison,522447,02/22/1994
1238738,america,Tara Salt,988825,Fullerton,522333,07/20/1995
1236184,india,Kieth Stark,986569,Springfield,522321,08/20/1995
1237729,america,Trisha Wilkinson,986206,Lisbon,522352,02/22/1994
1237468,india,Hailey Graves,987106,Honolulu,522806,02/22/1994
1236668,america,Mason Gosling,986407,Nashville,522416,07/20/1995
1236171,india,Alma Flanders,988162,Honolulu,522544,08/20/1995
1237375,america,Owen Selby,988651,Fort Lauderdale,521262,02/22/1994
1236134,india,Vanessa Marshall,988317,Bucharest,522160,02/22/1994
1236745,america,Barney Emmott,988634,Rochester,522255,07/20/1995
1237526,india,Elijah Mullins,984742,Wien,522784,08/20/1995
1237538,america,Priscilla Woodley,987005,Seattle,522350,02/22/1994
1234736,india,Carl Tobin,988956,Salt Lake City,521145,02/22/1994
1238087,america,Evie Baxter,986761,Salt Lake City,522388,07/20/1995
1235487,india,Belinda Thatcher,986841,Los Angeles,522022,08/20/1995
1238716,america,Enoch Flack,985286,Las Vegas,522474,02/22/1994
1238377,india,Abdul Simmons,985000,Huntsville,521655,02/22/1994
1235843,america,Angel Phillips,987851,Oakland,521477,07/20/1995
1236057,india,Javier Skinner,987253,Bellevue,522152,08/20/1995
1238851,america,Erick Gonzales,986318,Madison,521240,02/22/1994
1235845,india,Fred Swift,988560,Milano,521211,02/22/1994
1237950,america,David Raven,985219,Lisbon,521510,07/20/1995
1238534,india,Jenna Rixon,985516,Lancaster,522126,08/20/1995
1236581,america,Barry Bloom,987106,San Jose,522328,02/22/1994
1237968,india,Jacob James,985845,Los Angeles,522504,02/22/1994
1238136,america,Barney Dubois,986302,Boston,522429,07/20/1995
1236817,india,Ruth Noon,986232,Los Angeles,521418,08/20/1995
1234669,america,Violet Vangness,987078,Springfield,521813,02/22/1994
1234762,india,Michaela Walton,986087,Pittsburgh,521282,02/22/1994
1235272,america,Sharon Coates,987884,Denver,522396,07/20/1995
1236088,india,Sabrina Asher,988892,El Paso,522372,08/20/1995
1238406,america,Henry Wood,987429,New York,521479,02/22/1994
1235523,india,Danny Stone ,987490,Oklahoma City,522746,02/22/1994
1237478,america,Chad Rainford,987041,Reno,522210,07/20/1995
1234856,india,Jack Underhill,987654,Las Vegas,522575,08/20/1995
1235338,america,Clint Hardwick,984825,Indianapolis,521287,02/22/1994
1236588,india,Maia Wright,985243,San Bernardino,522904,02/22/1994
1234921,america,Nick Smith,988814,El Paso,522116,07/20/1995
1235483,india,Laila Lloyd,988021,Escondido,522255,08/20/1995
1237763,america,Nick King,987336,Louisville,521520,02/22/1994
1238884,india,Shay Stubbs,987507,Sacramento,521452,02/22/1994
1237506,america,Destiny James,987578,Louisville,522717,07/20/1995
1236407,india,Nick Dobson,986128,Ontario,521505,08/20/1995
1235043,america,Barry Ulyatt,987796,Tulsa,522194,02/22/1994
1238303,india,Barry Uttridge,985844,Baltimore,522137,02/22/1994
1235463,america,Angelica Roberts,988128,Seattle,521221,07/20/1995
1235481,india,Hope Roberts,985670,Philadelphia,521383,08/20/1995
1238414,america,Mike Stewart,987106,Amarillo,522560,02/22/1994
1238979,india,Bethany Anderson,988124,Garland,522948,02/22/1994
1236118,america,Daniel Murray,985513,Las Vegas,521987,07/20/1995
1237146,india,Priscilla Abbot,988201,Rome,522766,08/20/1995
1238781,america,Joseph Eyres,987865,Detroit,522994,02/22/1994
1234698,india,George Eastwood,985086,Paris,521790,02/22/1994
1235964,america,Lana Robe,986027,Colorado Springs,522974,07/20/1995
1235507,india,Matthew Clarke,984693,Orlando,521196,08/20/1995
1238916,america,Caleb Lyon,987240,Lisbon,521521,02/22/1994
1236361,india,Nate Warner,986802,Lisbon,522008,02/22/1994
1236529,america,Carolyn Nielson,987488,Bridgeport,522321,07/20/1995
1235729,india,Hailey Williams,984760,Richmond,521693,08/20/1995
1235096,america,Harry Harvey,986741,Lisbon,521876,02/22/1994
1234874,india,Andrea Ellwood,987271,Boston,521616,02/22/1994
1234816,america,Hayden Thorpe,987365,Kansas City,522754,07/20/1995
1237030,india,Freya Wise,988463,Murfreesboro,521200,08/20/1995
1235850,america,Anthony Yates,986662,Madrid,521806,02/22/1994
1236116,india,Dakota Lucas,988362,Philadelphia,522014,02/22/1994
1237403,america,Faith Funnell,988517,Chicago,522048,07/20/1995
1235644,india,Morgan Hall,988512,Long Beach,522004,08/20/1995
1238003,america,Bob Davies,986678,Dallas,521230,02/22/1994
1238861,india,Sebastian Gibbons,985015,Tallahassee,522323,02/22/1994
1234849,america,Dasha Truscott,986598,Long Beach,522068,07/20/1995
1238765,india,Martin Oswald,985776,Sacramento,522681,08/20/1995
1234948,america,Michaela Craig,988561,Springfield,522978,02/22/1994
1236993,india,Marina Daniells,986644,Lyon,521993,02/22/1994
1237430,america,Sydney Attwood,988263,Arlington,522498,07/20/1995
1236621,india,Maxwell Tanner,986839,Jacksonville,522821,08/20/1995
1237895,america,Erick Grady,987211,Minneapolis,521774,02/22/1994
1237547,india,Katelyn Thomas,984890,Saint Paul,522784,02/22/1994
1238191,america,Doug Hewitt,987725,Jacksonville,521126,07/20/1995
1236615,india,Phoebe Pearce,987076,Columbus,521401,08/20/1995
1236746,america,Aurelia Newman,988878,San Francisco,522129,02/22/1994
1236246,india,Joseph Brooks,987310,Colorado Springs,522423,02/22/1994
1235375,america,Henry Everett,988622,Lancaster,521937,07/20/1995
1237608,india,Harvey Davies,988348,Glendale,521977,08/20/1995
1238328,america,Vanessa Wilkinson,987699,New York,522259,02/22/1994
1235847,india,Amy Hobson,985498,Moreno Valley,522152,02/22/1994
1238832,america,Mona Jenkin,988579,Laredo,522526,07/20/1995
1236274,india,Winnie Summers,987064,Berna,522633,08/20/1995
1234876,america,Tiffany Locke,988465,Las Vegas,522178,02/22/1994
1236650,india,Analise Blackburn,984651,Los Angeles,522012,02/22/1994
1234748,america,Phillip Marshall,987641,Washington,521898,07/20/1995
1237034,india,Maria Patel,985621,Lisbon,522464,08/20/1995
1235542,america,Daniel Lyon,987692,Las Vegas,522248,02/22/1994
1235959,india,Phillip Atkinson,986970,Boston,521632,02/22/1994
1238364,america,Leroy Tutton,986198,Milwaukee,521581,07/20/1995
1236370,india,Roger Addison,985882,Garland,521422,08/20/1995
1236190,america,Cedrick Marshall,987611,Milano,521738,02/22/1994
1237714,india,Benjamin Uttley,987439,Otawa,522830,02/22/1994
1235149,america,Josephine Groves,987968,Wien,522879,07/20/1995
1235219,india,Domenic Partridge,984679,Houston,521818,08/20/1995
1237535,america,Matt Todd,985042,Charlotte,522440,02/22/1994
1235476,india,Caleb Thorne,988532,Springfield,521198,02/22/1994
1235923,america,Adalie Connell,985128,Phoenix,521584,07/20/1995
1234766,india,Matthew Ellison,987312,Phoenix,522069,08/20/1995
1235623,america,Julius Morgan,987296,Louisville,522000,02/22/1994
1237607,india,Enoch Thompson,988176,Miami,522697,02/22/1994
1238993,america,Hayden Eaton,985531,Sacramento,522258,07/20/1995
1238665,india,Percy Yard,986734,Los Angeles,522496,08/20/1995
1237427,america,Kaylee Davies,986840,St. Louis,522000,02/22/1994
1238138,india,Nicholas Williams,985538,Bucharest,521222,02/22/1994
1236045,america,Denny Weatcroft,988319,Portland,522133,07/20/1995
1235125,india,Hank Quinton,987339,Toledo,521877,08/20/1995
1236464,america,Rihanna Emmett,985584,St. Louis,522902,02/22/1994
1238797,india,Scarlett Yard,987812,Valetta,522905,02/22/1994
1238179,america,Eileen Vallins,988917,El Paso,521441,07/20/1995
1237314,india,Aiden Gaynor,988461,Anaheim,522492,08/20/1995
1236956,america,Carter Yarwood,986557,London,521994,02/22/1994
1236031,india,Anabel Russell,988723,Madrid,522094,02/22/1994
1238587,america,Savannah Widdows,986262,Glendale,522297,07/20/1995
1238801,india,Aiden Walker,988356,Oakland,521469,08/20/1995
1236107,america,Henry Ebden,988260,Miami,522255,02/22/1994
1235813,india,Tom Rowlands,985998,Irving,521668,02/22/1994
1238524,america,Mike Smith,985823,Lakewood,522388,07/20/1995
1237931,india,Adina Ebbs,987968,Madrid,521217,08/20/1995
1237951,america,Florence Veale,988966,Paris,521936,02/22/1994
1237551,india,Kurt Locke,985099,Washington,522312,02/22/1994
1234737,america,Maxwell Wright,986731,Madison,521603,07/20/1995
1236858,india,Adina Jordan,987858,Santa Ana,522509,08/20/1995
1237185,america,Alison Gates,988514,San Diego,521884,02/22/1994
1238964,india,Johnny Rust,985477,Hollywood,521725,02/22/1994
1237655,america,Tara Seymour,988828,Quebec,522847,07/20/1995
1236622,india,Savannah London,984868,Worcester,522399,08/20/1995
1235414,america,David May,986786,Salt Lake City,521386,02/22/1994
1236831,india,Ethan Mills,985867,Kansas City,521331,02/22/1994
1236211,america,Cameron Bennett,986009,New York,522252,07/20/1995
1236324,india,Marla Harris,987715,Salt Lake City,521253,08/20/1995
1236854,america,Valerie Parr,987882,Lyon,521323,02/22/1994
1237244,india,Daniel Kaur,986131,Escondido,521410,02/22/1994
1238556,america,Josh Matthews,984623,Venice,521462,07/20/1995
1237673,india,Catherine Price,984655,Toledo,521782,08/20/1995
1235441,america,Jackeline Thorpe,987660,Stockton,521585,02/22/1994
1235140,india,Tyson Tyler,985577,Louisville,521308,02/22/1994
1237414,america,Mavis Adams,985152,Fayetteville,521574,07/20/1995
1237508,india,Abdul Chadwick,988213,Oklahoma City,521146,08/20/1995
1236113,america,Daniel Radley,985822,Seattle,522352,02/22/1994
1237203,india,Hayden Owens,985805,San Diego,522964,02/22/1994
1235907,america,Chester Cassidy,985766,Sacramento,521984,07/20/1995
1237020,india,Noah Matthews,988325,Salt Lake City,522806,08/20/1995
1237415,america,Owen Murray,988635,Rome,522067,02/22/1994
1235509,india,Christy Dwyer,987246,Columbus,521384,02/22/1994
1237450,america,Mark Raven,985492,Quebec,522634,07/20/1995
1234648,india,Sebastian Groves,987666,Huntsville,521881,08/20/1995
1236888,america,Kieth Poulton,985832,Milwaukee,522725,02/22/1994
1235622,india,Angelique Murray,986880,London,521619,02/22/1994
1236161,america,Adelaide Thompson,987646,Zurich,522312,07/20/1995
1234620,india,Harry Oakley,984842,Santa Ana,521286,08/20/1995
1238511,america,Danny Tyler,987147,Fort Lauderdale,522671,02/22/1994
1236080,india,Holly Widdows,985395,New York,522380,02/22/1994
1238017,america,Elisabeth Cameron,985081,New York,521305,07/20/1995
1237428,india,Wade Gonzales,985910,Bellevue,522513,08/20/1995
1238733,america,Matt Ingham,988968,Long Beach,521505,02/22/1994
1238493,india,Jocelyn Lucas,986380,Henderson,522630,02/22/1994
1237563,america,Harvey Whatson,988474,Glendale,521300,07/20/1995
1238472,india,Danny Stewart,985855,St. Louis,522888,08/20/1995
1238782,america,David Lane,988894,Omaha,522698,02/22/1994
1236868,india,Tania Gibbons,987764,Tokyo,522960,02/22/1994
1236472,america,Benny Sinclair,985778,Madison,522201,07/20/1995
1237846,india,Agnes Blackwall,987873,El Paso,521342,08/20/1995
1238630,america,Rita Davies,985374,Saint Paul,521795,02/22/1994
1234598,india,Rosalyn Lindop,984970,St. Louis,521298,02/22/1994
1234652,america,Gemma Healy,985183,Phoenix,521173,07/20/1995
1236166,india,Nate Redden,986503,Paris,522731,08/20/1995
1236424,america,Tony John,986838,Berna,521929,02/22/1994
1234719,india,Benny Penn,985781,Louisville,522814,02/22/1994
1238823,america,Darlene Rothwell,987284,Phoenix,521320,07/20/1995
1236972,india,Mara Lomax,985557,Richmond,521557,08/20/1995
1237307,america,Gwen Potter,985763,Bellevue,522440,02/22/1994
1235226,india,Alexander Attwood,987730,El Paso,522591,02/22/1994
1235021,america,Sofie Styles,984785,Chicago,521416,07/20/1995
1236819,india,Rae Stone,986503,Albuquerque,522374,08/20/1995
1235971,america,Rocco Ianson,988298,Milano,522337,02/22/1994
1234689,india,Savannah Parr,987786,Laredo,522120,02/22/1994
1235877,america,Rosalyn Parker,986837,Paris,522381,07/20/1995
1237440,india,Aiden Kidd,988071,Innsbruck,522065,08/20/1995
1235123,america,Helen Radcliffe,988803,Sacramento,522326,02/22/1994
1234683,india,Jolene Bradshaw,988071,Wien,522732,02/22/1994
1237586,america,Carter Watson,985479,Cincinnati,522452,07/20/1995
1235667,india,Phillip Jones,986398,Dallas,522807,08/20/1995
1235950,america,Leroy Cadman,988344,Jacksonville,521892,02/22/1994
1237842,india,Francesca Edmonds,987879,Minneapolis,522195,02/22/1994
1236635,america,Boris Woodcock,987930,Moreno Valley,521622,07/20/1995
1235583,india,Hope Trent,985007,Huntsville,521737,08/20/1995
1235505,america,Wendy Redden,986264,Laredo,521680,02/22/1994
1237261,india,Barney Quinton,987141,Salt Lake City,521801,02/22/1994
1238820,america,Carter Dann,986644,Springfield,521683,07/20/1995
1237958,india,Anne Darcy,985155,Phoenix,521921,08/20/1995
1238257,america,Josh Kennedy,988612,Salem,522020,02/22/1994
1235668,india,Ruby Dwyer,988846,San Antonio,522534,02/22/1994
1236310,america,Denis Norman,985342,Wien,521594,07/20/1995
1236968,india,Anabel Adler,988563,Sacramento,521959,08/20/1995
1235452,america,Angela Parker,984819,Glendale,521484,02/22/1994
1236271,india,Chad Kirby,984837,Garland,521583,02/22/1994
1236924,america,Johnny Bryson,984862,Hayward,521733,07/20/1995
1234842,india,Aeris Gilbert,987787,Detroit,521449,08/20/1995
1235529,america,Taylor Campbell,985444,Lakewood,522458,02/22/1994
1236849,india,Rosemary Butler,988282,San Jose,521674,02/22/1994
1235424,america,Oliver Wright,985152,Kansas City,521480,07/20/1995
1236423,india,Abdul Ingram,985939,Bakersfield,521355,08/20/1995
1237147,america,Michael Mitchell,988926,Berlin,521752,02/22/1994
1235784,india,Mavis Butler,986367,Glendale,521385,02/22/1994
1237377,america,Gina Shaw,986633,Omaha,522790,07/20/1995
1237491,india,Alessandra Grey,986232,Nashville,521823,08/20/1995
1236043,america,Gil Harrison,984641,Lakewood,522204,02/22/1994
1238333,india,Gwenyth Stewart,984998,Philadelphia,522559,02/22/1994
1237103,america,Jack Rigg,985434,Long Beach,521675,07/20/1995
1236783,india,Sabrina Ingham,986116,Phoenix,522831,08/20/1995
1235215,america,Erin Weatcroft,988369,Boston,521347,02/22/1994
1236518,india,Clarissa Clayton,987387,Laredo,522267,02/22/1994
1238280,america,Marie Latham,987793,Denver,522705,07/20/1995
1238920,india,Rylee Weldon,984929,Richmond,521420,08/20/1995
1238330,america,Barney Benson,985219,Valetta,522824,02/22/1994
1235464,india,Maggie Fox,985443,St. Louis,522236,02/22/1994
1234678,america,Ryan Hepburn,985187,Baltimore,522679,07/20/1995
1234802,india,Ron Evans,985978,Baltimore,521564,08/20/1995
1235399,america,John Moran,987520,Detroit,521939,02/22/1994
1238220,india,Anne Marshall,987325,Milwaukee,521842,02/22/1994
1237349,america,Karen Edwards,984651,London,522149,07/20/1995
1236927,india,Daniel Avery,984627,Anaheim,522260,08/20/1995
1234953,america,Bethany Eagle,985389,Prague,521483,02/22/1994
1238725,india,Logan Harris,987958,Rome,522668,02/22/1994
1235089,america,Raquel Moss,987469,Colorado Springs,522083,07/20/1995
1236646,india,Anabel Appleton,986194,Tokyo,521992,08/20/1995
1234717,america,Ellen Hope,987342,Pittsburgh,522572,02/22/1994
1238961,india,Monica Rothwell,986362,Fullerton,522969,02/22/1994
1235685,america,Noah Dixon,987734,Madrid,522284,07/20/1995
1238117,india,George Swift,987120,Long Beach,522308,08/20/1995
1237970,america,Barry Williams,984969,Glendale,521173,02/22/1994
1238026,india,Maxwell Cattell,987863,Tokyo,522177,02/22/1994
1236348,america,Matt Butler,987414,Denver,521447,07/20/1995
1235352,india,Doug Moran,988242,Louisville,521382,08/20/1995
1235189,america,Chadwick Goldsmith,987054,New Orleans,522205,02/22/1994
1238177,india,Carissa Emerson,986271,Amarillo,522956,02/22/1994
1234942,america,Dani Penn,986213,Memphis,521261,07/20/1995
1238047,india,Keira Jarrett,988772,Reno,522780,08/20/1995
1235909,america,Candace Harrison,985105,Denver,522049,02/22/1994
1235595,india,Mabel Fulton,988727,Arlington,522749,02/22/1994
1236194,america,Emery Pratt,987961,Fullerton,521177,07/20/1995
1236284,india,Maxwell Pope,988911,New York,521267,08/20/1995
1238213,america,Analise Gallacher,988202,Lancaster,521569,02/22/1994
1238283,india,Julian Pope,985638,Cincinnati,522822,02/22/1994
1237814,america,Madelyn Rees,987828,Columbus,522515,07/20/1995
1235374,india,Parker Rodwell,988595,Orlando,522323,08/20/1995
1235683,america,Mandy Whinter,988537,Tallahassee,522579,02/22/1994
1235235,india,Caleb Nelson,986557,Bakersfield,521124,02/22/1994
1238535,america,Anabelle Harvey,988613,Lakewood,522711,07/20/1995
1238390,india,William Evans,986053,Denver,521439,08/20/1995
1238728,america,Hank Watt,985329,Moreno Valley,521205,02/22/1994
1237379,india,Paige Rehman,987185,Las Vegas,522061,02/22/1994
1234861,america,Martin Rust,986233,Arlington,522348,07/20/1995
1237616,india,Domenic Bowen,985983,Escondido,522332,08/20/1995
1237981,america,Chester Holt,988011,Paris,522199,02/22/1994
1235106,india,Bryon Stone,985280,Tallahassee,522978,02/22/1994
1237110,america,Peter Brown,985453,Saint Paul,521923,07/20/1995
1235053,india,Felicity Coates,988227,San Antonio,521695,08/20/1995
1238761,america,Emmanuelle Irwin,987194,Berlin,521839,02/22/1994
1237720,india,Noah Chapman,985801,Baltimore,522738,02/22/1994
1236484,america,Luke Johnson,985845,Bakersfield,522762,07/20/1995
1237662,india,Cedrick Varndell,988355,Ontario,522366,08/20/1995
1238574,america,Winnie Gordon,987220,Prague,522143,02/22/1994
1236785,india,Cedrick Jenkins,985456,Anaheim,522810,02/22/1994
1238575,america,Zoe Burnley,987681,Fremont,521485,07/20/1995
1236281,india,Joy Gray,987374,San Bernardino,521346,08/20/1995
1235385,america,Denis Mitchell,988650,Milwaukee,522792,02/22/1994
1237746,india,Josh Bryant,988549,Prague,522518,02/22/1994
1235014,america,Karen Hilton,986633,Worcester,521784,07/20/1995
1238052,india,Johnathan Uttley,988486,Hollywood,522282,08/20/1995
1238892,america,Danny Buckley,985785,Venice,522650,02/22/1994
1235154,india,Jane Newman,987795,Anaheim,522783,02/22/1994
1234831,america,Felicity Eyres,986451,Murfreesboro,522600,07/20/1995
1238426,india,Chloe Nicolas,986950,Zurich,522297,08/20/1995
1235133,america,Ryan Edwards,987813,Garland,521843,02/22/1994
1235040,india,Julian Campbell,986007,Louisville,522127,02/22/1994
1234580,america,Alexander Hastings,984627,Salt Lake City,521866,07/20/1995
1238747,india,Joseph Andrews,987938,Omaha,521415,08/20/1995
1237353,america,Denny Reyes,987927,Hollywood,522610,02/22/1994
1236611,india,Noemi Snell,987295,Reno,522919,02/22/1994
1237504,america,Vanessa Sinclair,988062,Huntsville,522181,07/20/1995
1237905,india,Ronald Stewart,985335,Worcester,521683,08/20/1995
1235610,america,Sebastian Jeffery,984756,Portland,521920,02/22/1994
1237932,india,Domenic Willson,985075,Washington,521263,02/22/1994
1237693,america,Chuck Rossi,988817,El Paso,522479,07/20/1995
1237595,india,Eileen Moore,988148,Milwaukee,521334,08/20/1995
1235379,america,Daphne Samuel,987933,El Paso,521948,02/22/1994
1238331,india,Luke Osmond,988014,San Jose,522869,02/22/1994
1236119,america,Faith Kelly,987867,Dallas,522663,07/20/1995
1237785,india,Alba Cassidy,986301,Berlin,522371,08/20/1995
1237313,america,Peter Doherty,985866,Bucharest,522818,02/22/1994
1236613,india,Goldie Beal,986022,Berna,521894,02/22/1994
1236032,america,Michael Price,986580,Lyon,521428,07/20/1995
1235313,india,Maxwell Murray,985393,Zurich,521834,08/20/1995
1235792,america,Sharon Purvis,988113,Valetta,522204,02/22/1994
1236566,india,Rose Ingham,988233,Long Beach,522639,02/22/1994
1235650,america,Logan Bell,985206,Lyon,521924,07/20/1995
1238114,india,Jennifer Edwards,988396,Boston,521550,08/20/1995
1237852,america,Marina Drummond,987076,Atlanta,522393,02/22/1994
1238200,india,Doug Gibbons,985396,Saint Paul,522802,02/22/1994
1238954,america,Cara Powell,985906,Jersey City,521127,07/20/1995
1235057,india,Molly Dobson,988958,Wien,522738,08/20/1995
1235676,america,Mina Fox,988863,Henderson,521759,02/22/1994
1236076,india,Russel Stanley,988232,Venice,522233,02/22/1994
1235477,america,Kurt Bishop,988998,Cincinnati,522935,07/20/1995
1238425,india,Lucas Stevens,988505,Indianapolis,521263,08/20/1995
1237257,america,Marvin Hope,984620,Ontario,521343,02/22/1994
1236058,india,Bree Hopkinson,987734,Cincinnati,522224,02/22/1994
1236970,america,Danny Whinter,987372,Washington,522377,07/20/1995
1237157,india,Nathan Norton,987693,Kansas City,521713,08/20/1995
1237012,america,Fred Stuart,987089,Toledo,521779,02/22/1994
1236225,india,Bethany Nanton,988309,Rome,522370,02/22/1994
1236086,america,Harvey Yates,985509,Louisville,522943,07/20/1995
1237258,india,Chris Dunbar,985212,Arlington,521771,08/20/1995
1235841,america,Evie Gilmour,987803,Detroit,522023,02/22/1994
1235783,india,Isabella Utterson,987099,Fremont,522172,02/22/1994
1234791,america,Danny Stone,987894,Portland,521473,07/20/1995
1238572,india,Luke London,987750,Colorado Springs,521596,08/20/1995
1236317,america,Peter Parr,986321,Milwaukee,521642,02/22/1994
1235199,india,Danny Kelly,986655,Los Angeles,522531,02/22/1994
1235501,america,Russel Richardson,987468,Los Angeles,522180,07/20/1995
1236115,india,Angela Gonzales,985321,Toledo,522700,08/20/1995
1234911,america,Claire Tobin,985379,Bellevue,521892,02/22/1994
1237099,india,Jenna Neal,985966,Amarillo,522842,02/22/1994
1237838,america,Carmella Vaughn,988358,Toledo,522801,07/20/1995
1235681,india,Melania Ebden,987913,Irving,521523,08/20/1995
1236167,america,Anne Ballard,985374,Berlin,522307,02/22/1994
